[{"OBJECT_NAME":"ICEYE-X30","OBJECT_ID":"2023-084R","EPOCH":"2026-03-09T21:18:40.033440","MEAN_MOTION":15.72701856,"ECCENTRICITY":0.00049319,"INCLINATION":97.5707,"RA_OF_ASC_NODE":220.1726,"ARG_OF_PERICENTER":282.9335,"MEAN_ANOMALY":77.1377,"EPHEMERIS_TYPE":0,"CLASSIFICATION_TYPE":"U","NORAD_CAT_ID":56947,"ELEMENT_SET_NO":999,"REV_AT_EPOCH":15325,"BSTAR":0.00083938221,"MEAN_MOTION_DOT":0.00114026,"MEAN_MOTION_DDOT":0},{"OBJECT_NAME":"STARLINK-11630 [DTC]","OBJECT_ID":"2025-039H","EPOCH":"2026-03-09T22:00:01.999584","MEAN_MOTION":15.70752779,"ECCENTRICITY":0.00014825,"INCLINATION":43.0001,"RA_OF_ASC_NODE":235.7686,"ARG_OF_PERICENTER":283.3215,"MEAN_ANOMALY":230.7683,"EPHEMERIS_TYPE":0,"CLASSIFICATION_TYPE":"U","NORAD_CAT_ID":63111,"ELEMENT_SET_NO":999,"REV_AT_EPOCH":598,"BSTAR":0.0018223442,"MEAN_MOTION_DOT":0.00239364,"MEAN_MOTION_DDOT":0}]
